{
  "type": "FeatureCollection",
  "features": [
    {
      "type": "Feature",
      "properties": {
        "norad_id": 30022,
        "name": "FENGYUN 1C DEB",
        "group": "fengyun-1c-debris",
        "lat": 20.215979857978507,
        "lon": 12.937551152729855,
        "alt_km": 841.8019711775205,
        "timestamp": "2025-12-07T14:37:05.477936+00:00",
        "meta_object_name": "FENGYUN 1C DEB",
        "meta_object_id": "1999-025MX",
        "meta_epoch": "2025-12-06T08:22:48.601632",
        "meta_mean_motion": 14.23129043,
        "meta_eccentricity": 0.00666325,
        "meta_inclination": 99.0726,
        "meta_ra_of_asc_node": 188.2665,
        "meta_arg_of_pericenter": 287.6953,
        "meta_mean_anomaly": 261.0599,
        "meta_ephemeris_type": 0,
        "meta_classification_type": "U",
        "meta_norad_cat_id": 30022,
        "meta_element_set_no": 999,
        "meta_rev_at_epoch": 98101,
        "meta_bstar": 0.00015129171,
        "meta_mean_motion_dot": 3.02e-06,
        "meta_mean_motion_ddot": 0,
        "tle_line1": "1 30022U 99025MX  25340.34917363  .00000302  00000+0  15129-3 0  9997",
        "tle_line2": "2 30022  99.0726 188.2665 0066632 287.6953 261.0599 14.23129043981011"
      },
      "geometry": {
        "type": "Point",
        "coordinates": [
          12.937551152729855,
          20.215979857978507
        ]
      }
    },
    {
      "type": "Feature",
      "properties": {
        "norad_id": 30023,
        "name": "FENGYUN 1C DEB",
        "group": "fengyun-1c-debris",
        "lat": -61.10144825143867,
        "lon": -167.75767378639165,
        "alt_km": 886.2764303570966,
        "timestamp": "2025-12-07T14:37:05.477946+00:00",
        "meta_object_name": "FENGYUN 1C DEB",
        "meta_object_id": "1999-025MY",
        "meta_epoch": "2025-12-06T08:52:32.155104",
        "meta_mean_motion": 14.11849214,
        "meta_eccentricity": 0.00472026,
        "meta_inclination": 99.2942,
        "meta_ra_of_asc_node": 173.7018,
        "meta_arg_of_pericenter": 81.1195,
        "meta_mean_anomaly": 41.416,
        "meta_ephemeris_type": 0,
        "meta_classification_type": "U",
        "meta_norad_cat_id": 30023,
        "meta_element_set_no": 999,
        "meta_rev_at_epoch": 97106,
        "meta_bstar": 0.00070709964,
        "meta_mean_motion_dot": 1.257e-05,
        "meta_mean_motion_ddot": 0,
        "tle_line1": "1 30023U 99025MY  25340.36981661  .00001257  00000+0  70710-3 0  9999",
        "tle_line2": "2 30023  99.2942 173.7018 0047202  81.1195  41.4160 14.11849214971066"
      },
      "geometry": {
        "type": "Point",
        "coordinates": [
          -167.75767378639165,
          -61.10144825143867
        ]
      }
    },
    {
      "type": "Feature",
      "properties": {
        "norad_id": 30028,
        "name": "FENGYUN 1C DEB",
        "group": "fengyun-1c-debris",
        "lat": 50.09134931409408,
        "lon": 163.81552134143305,
        "alt_km": 754.2189763290553,
        "timestamp": "2025-12-07T14:37:05.477957+00:00",
        "meta_object_name": "FENGYUN 1C DEB",
        "meta_object_id": "1999-025ND",
        "meta_epoch": "2025-12-06T23:25:19.098336",
        "meta_mean_motion": 14.55452575,
        "meta_eccentricity": 0.01741883,
        "meta_inclination": 98.1447,
        "meta_ra_of_asc_node": 333.3386,
        "meta_arg_of_pericenter": 246.3661,
        "meta_mean_anomaly": 168.9366,
        "meta_ephemeris_type": 0,
        "meta_classification_type": "U",
        "meta_norad_cat_id": 30028,
        "meta_element_set_no": 999,
        "meta_rev_at_epoch": 99638,
        "meta_bstar": 0.00073074926,
        "meta_mean_motion_dot": 3.845e-05,
        "meta_mean_motion_ddot": 0,
        "tle_line1": "1 30028U 99025ND  25340.97591549  .00003845  00000+0  73075-3 0  9995",
        "tle_line2": "2 30028  98.1447 333.3386 0174188 246.3661 168.9366 14.55452575996381"
      },
      "geometry": {
        "type": "Point",
        "coordinates": [
          163.81552134143305,
          50.09134931409408
        ]
      }
    },
    {
      "type": "Feature",
      "properties": {
        "norad_id": 30035,
        "name": "FENGYUN 1C DEB",
        "group": "fengyun-1c-debris",
        "lat": -75.48915895094117,
        "lon": -64.84420967959655,
        "alt_km": 850.879919198358,
        "timestamp": "2025-12-07T14:37:05.477967+00:00",
        "meta_object_name": "FENGYUN 1C DEB",
        "meta_object_id": "1999-025NL",
        "meta_epoch": "2025-12-06T17:30:40.356000",
        "meta_mean_motion": 14.3697036,
        "meta_eccentricity": 0.01156693,
        "meta_inclination": 99.2703,
        "meta_ra_of_asc_node": 255.0809,
        "meta_arg_of_pericenter": 79.2987,
        "meta_mean_anomaly": 335.5327,
        "meta_ephemeris_type": 0,
        "meta_classification_type": "U",
        "meta_norad_cat_id": 30035,
        "meta_element_set_no": 999,
        "meta_rev_at_epoch": 99037,
        "meta_bstar": 0.00013713996,
        "meta_mean_motion_dot": 3.86e-06,
        "meta_mean_motion_ddot": 0,
        "tle_line1": "1 30035U 99025NL  25340.72963375  .00000386  00000+0  13714-3 0  9997",
        "tle_line2": "2 30035  99.2703 255.0809 0115669  79.2987 335.5327 14.36970360990377"
      },
      "geometry": {
        "type": "Point",
        "coordinates": [
          -64.84420967959655,
          -75.48915895094117
        ]
      }
    },
    {
      "type": "Feature",
      "properties": {
        "norad_id": 30036,
        "name": "FENGYUN 1C DEB",
        "group": "fengyun-1c-debris",
        "lat": -23.161528078204743,
        "lon": -174.72162046388038,
        "alt_km": 616.5538474610858,
        "timestamp": "2025-12-07T14:37:05.477977+00:00",
        "meta_object_name": "FENGYUN 1C DEB",
        "meta_object_id": "1999-025NM",
        "meta_epoch": "2025-12-05T23:46:34.864320",
        "meta_mean_motion": 14.46142007,
        "meta_eccentricity": 0.01896962,
        "meta_inclination": 98.2529,
        "meta_ra_of_asc_node": 7.2619,
        "meta_arg_of_pericenter": 228.286,
        "meta_mean_anomaly": 195.0301,
        "meta_ephemeris_type": 0,
        "meta_classification_type": "U",
        "meta_norad_cat_id": 30036,
        "meta_element_set_no": 999,
        "meta_rev_at_epoch": 99079,
        "meta_bstar": 0.00077701865,
        "meta_mean_motion_dot": 3.42e-05,
        "meta_mean_motion_ddot": 0,
        "tle_line1": "1 30036U 99025NM  25339.99068130  .00003420  00000+0  77702-3 0  9999",
        "tle_line2": "2 30036  98.2529   7.2619 0189696 228.2860 195.0301 14.46142007990793"
      },
      "geometry": {
        "type": "Point",
        "coordinates": [
          -174.72162046388038,
          -23.161528078204743
        ]
      }
    },
    {
      "type": "Feature",
      "properties": {
        "norad_id": 30037,
        "name": "FENGYUN 1C DEB",
        "group": "fengyun-1c-debris",
        "lat": 75.65365280666089,
        "lon": 172.68690493231165,
        "alt_km": 663.5758381494243,
        "timestamp": "2025-12-07T14:37:05.477987+00:00",
        "meta_object_name": "FENGYUN 1C DEB",
        "meta_object_id": "1999-025NN",
        "meta_epoch": "2025-12-06T17:12:00.459936",
        "meta_mean_motion": 14.34105486,
        "meta_eccentricity": 0.01746165,
        "meta_inclination": 98.3827,
        "meta_ra_of_asc_node": 316.614,
        "meta_arg_of_pericenter": 72.9208,
        "meta_mean_anomaly": 102.9973,
        "meta_ephemeris_type": 0,
        "meta_classification_type": "U",
        "meta_norad_cat_id": 30037,
        "meta_element_set_no": 999,
        "meta_rev_at_epoch": 98701,
        "meta_bstar": 0.00034939624,
        "meta_mean_motion_dot": 1.114e-05,
        "meta_mean_motion_ddot": 0,
        "tle_line1": "1 30037U 99025NN  25340.71667199  .00001114  00000+0  34940-3 0  9997",
        "tle_line2": "2 30037  98.3827 316.6140 0174616  72.9208 102.9973 14.34105486987018"
      },
      "geometry": {
        "type": "Point",
        "coordinates": [
          172.68690493231165,
          75.65365280666089
        ]
      }
    },
    {
      "type": "Feature",
      "properties": {
        "norad_id": 30038,
        "name": "FENGYUN 1C DEB",
        "group": "fengyun-1c-debris",
        "lat": 32.73964844191129,
        "lon": -36.07509589974162,
        "alt_km": 737.8901647403482,
        "timestamp": "2025-12-07T14:37:05.477998+00:00",
        "meta_object_name": "FENGYUN 1C DEB",
        "meta_object_id": "1999-025NP",
        "meta_epoch": "2025-12-06T22:02:05.383968",
        "meta_mean_motion": 14.39276724,
        "meta_eccentricity": 0.02578781,
        "meta_inclination": 98.3679,
        "meta_ra_of_asc_node": 328.6802,
        "meta_arg_of_pericenter": 120.2292,
        "meta_mean_anomaly": 297.8081,
        "meta_ephemeris_type": 0,
        "meta_classification_type": "U",
        "meta_norad_cat_id": 30038,
        "meta_element_set_no": 999,
        "meta_rev_at_epoch": 98807,
        "meta_bstar": 0.00034039017,
        "meta_mean_motion_dot": 1.51e-05,
        "meta_mean_motion_ddot": 0,
        "tle_line1": "1 30038U 99025NP  25340.91811787  .00001510  00000+0  34039-3 0  9993",
        "tle_line2": "2 30038  98.3679 328.6802 0257878 120.2292 297.8081 14.39276724988074"
      },
      "geometry": {
        "type": "Point",
        "coordinates": [
          -36.07509589974162,
          32.73964844191129
        ]
      }
    }
  ]
}